CCSDS_OMM_VERS = 2.0
CREATION_DATE  = 
ORIGINATOR     = 

OBJECT_NAME    = ERS-1
OBJECT_ID      = 1991-050A
CENTER_NAME    = EARTH
REF_FRAME      = TEME
TIME_SYSTEM    = UTC
MEAN_ELEMENT_THEORY = SGP/SGP4

EPOCH          = 2026-03-08T00:41:51.366336
MEAN_MOTION    = 14.39448063
ECCENTRICITY   = .0031538
INCLINATION    = 98.7884
RA_OF_ASC_NODE = 85.2220
ARG_OF_PERICENTER = 205.4587
MEAN_ANOMALY   = 154.5048

EPHEMERIS_TYPE = 0
CLASSIFICATION_TYPE = U
NORAD_CAT_ID   = 21574
ELEMENT_SET_NO = 999
REV_AT_EPOCH   = 81549
BSTAR          = .15895E-3
MEAN_MOTION_DOT = .451E-5
MEAN_MOTION_DDOT = 0

CCSDS_OMM_VERS = 2.0
CREATION_DATE  = 
ORIGINATOR     = 

OBJECT_NAME    = ARIANE 40 R/B
OBJECT_ID      = 1991-050F
CENTER_NAME    = EARTH
REF_FRAME      = TEME
TIME_SYSTEM    = UTC
MEAN_ELEMENT_THEORY = SGP/SGP4

EPOCH          = 2026-03-08T03:40:46.466976
MEAN_MOTION    = 14.42892482
ECCENTRICITY   = .0004353
INCLINATION    = 98.2014
RA_OF_ASC_NODE = 119.4473
ARG_OF_PERICENTER = 84.5937
MEAN_ANOMALY   = 275.5750

EPHEMERIS_TYPE = 0
CLASSIFICATION_TYPE = U
NORAD_CAT_ID   = 21610
ELEMENT_SET_NO = 999
REV_AT_EPOCH   = 81877
BSTAR          = .13694E-3
MEAN_MOTION_DOT = .416E-5
MEAN_MOTION_DDOT = 0

CCSDS_OMM_VERS = 2.0
CREATION_DATE  = 
ORIGINATOR     = 

OBJECT_NAME    = INTERCOSMOS 25
OBJECT_ID      = 1991-086A
CENTER_NAME    = EARTH
REF_FRAME      = TEME
TIME_SYSTEM    = UTC
MEAN_ELEMENT_THEORY = SGP/SGP4

EPOCH          = 2026-03-08T02:08:27.708576
MEAN_MOTION    = 12.11993967
ECCENTRICITY   = .1486999
INCLINATION    = 82.6049
RA_OF_ASC_NODE = 310.9762
ARG_OF_PERICENTER = 120.3783
MEAN_ANOMALY   = 255.2719

EPHEMERIS_TYPE = 0
CLASSIFICATION_TYPE = U
NORAD_CAT_ID   = 21819
ELEMENT_SET_NO = 999
REV_AT_EPOCH   = 49649
BSTAR          = .31231E-3
MEAN_MOTION_DOT = .1629E-4
MEAN_MOTION_DDOT = 0

CCSDS_OMM_VERS = 2.0
CREATION_DATE  = 
ORIGINATOR     = 

OBJECT_NAME    = SL-8 R/B
OBJECT_ID      = 1992-008B
CENTER_NAME    = EARTH
REF_FRAME      = TEME
TIME_SYSTEM    = UTC
MEAN_ELEMENT_THEORY = SGP/SGP4

EPOCH          = 2026-03-08T01:25:30.607392
MEAN_MOTION    = 13.75969785
ECCENTRICITY   = .0035462
INCLINATION    = 82.9225
RA_OF_ASC_NODE = 268.9915
ARG_OF_PERICENTER = 137.7699
MEAN_ANOMALY   = 333.1890

EPHEMERIS_TYPE = 0
CLASSIFICATION_TYPE = U
NORAD_CAT_ID   = 21876
ELEMENT_SET_NO = 999
REV_AT_EPOCH   = 70919
BSTAR          = -.50561E-5
MEAN_MOTION_DOT = .11E-6
MEAN_MOTION_DDOT = 0

CCSDS_OMM_VERS = 2.0
CREATION_DATE  = 
ORIGINATOR     = 

OBJECT_NAME    = SL-8 R/B
OBJECT_ID      = 1992-020B
CENTER_NAME    = EARTH
REF_FRAME      = TEME
TIME_SYSTEM    = UTC
MEAN_ELEMENT_THEORY = SGP/SGP4

EPOCH          = 2026-03-08T03:57:33.588576
MEAN_MOTION    = 13.75549419
ECCENTRICITY   = .0027732
INCLINATION    = 82.9338
RA_OF_ASC_NODE = 154.8934
ARG_OF_PERICENTER = 303.2408
MEAN_ANOMALY   = 119.2347

EPHEMERIS_TYPE = 0
CLASSIFICATION_TYPE = U
NORAD_CAT_ID   = 21938
ELEMENT_SET_NO = 999
REV_AT_EPOCH   = 70092
BSTAR          = .96323E-4
MEAN_MOTION_DOT = .108E-5
MEAN_MOTION_DDOT = 0

CCSDS_OMM_VERS = 2.0
CREATION_DATE  = 
ORIGINATOR     = 

OBJECT_NAME    = USA 81
OBJECT_ID      = 1992-023A
CENTER_NAME    = EARTH
REF_FRAME      = TEME
TIME_SYSTEM    = UTC
MEAN_ELEMENT_THEORY = SGP/SGP4

EPOCH          = 2026-03-08T02:55:35.253120
MEAN_MOTION    = 14.32367470
ECCENTRICITY   = .0002515
INCLINATION    = 85.0087
RA_OF_ASC_NODE = 132.3456
ARG_OF_PERICENTER = 78.8208
MEAN_ANOMALY   = 281.3267

EPHEMERIS_TYPE = 0
CLASSIFICATION_TYPE = U
NORAD_CAT_ID   = 21949
ELEMENT_SET_NO = 999
REV_AT_EPOCH   = 9456
BSTAR          = .77042E-4
MEAN_MOTION_DOT = .228E-5
MEAN_MOTION_DDOT = 0

CCSDS_OMM_VERS = 2.0
CREATION_DATE  = 
ORIGINATOR     = 

OBJECT_NAME    = COSMOS 2219
OBJECT_ID      = 1992-076A
CENTER_NAME    = EARTH
REF_FRAME      = TEME
TIME_SYSTEM    = UTC
MEAN_ELEMENT_THEORY = SGP/SGP4

EPOCH          = 2026-03-08T02:32:59.149824
MEAN_MOTION    = 14.14092003
ECCENTRICITY   = .0019098
INCLINATION    = 71.0630
RA_OF_ASC_NODE = 21.3770
ARG_OF_PERICENTER = 209.1203
MEAN_ANOMALY   = 150.8856

EPHEMERIS_TYPE = 0
CLASSIFICATION_TYPE = U
NORAD_CAT_ID   = 22219
ELEMENT_SET_NO = 999
REV_AT_EPOCH   = 71815
BSTAR          = .12555E-3
MEAN_MOTION_DOT = .192E-5
MEAN_MOTION_DDOT = 0

CCSDS_OMM_VERS = 2.0
CREATION_DATE  = 
ORIGINATOR     = 

OBJECT_NAME    = SL-16 R/B
OBJECT_ID      = 1992-076B
CENTER_NAME    = EARTH
REF_FRAME      = TEME
TIME_SYSTEM    = UTC
MEAN_ELEMENT_THEORY = SGP/SGP4

EPOCH          = 2026-03-08T02:16:17.398848
MEAN_MOTION    = 14.16860082
ECCENTRICITY   = .0010495
INCLINATION    = 71.0006
RA_OF_ASC_NODE = 191.7329
ARG_OF_PERICENTER = 99.2965
MEAN_ANOMALY   = 73.3388

EPHEMERIS_TYPE = 0
CLASSIFICATION_TYPE = U
NORAD_CAT_ID   = 22220
ELEMENT_SET_NO = 999
REV_AT_EPOCH   = 72160
BSTAR          = -.40045E-4
MEAN_MOTION_DOT = -.128E-5
MEAN_MOTION_DDOT = 0

CCSDS_OMM_VERS = 2.0
CREATION_DATE  = 
ORIGINATOR     = 

OBJECT_NAME    = COSMOS 2221
OBJECT_ID      = 1992-080A
CENTER_NAME    = EARTH
REF_FRAME      = TEME
TIME_SYSTEM    = UTC
MEAN_ELEMENT_THEORY = SGP/SGP4

EPOCH          = 2026-03-08T02:22:48.588672
MEAN_MOTION    = 14.96194104
ECCENTRICITY   = .0013898
INCLINATION    = 82.5009
RA_OF_ASC_NODE = 280.6049
ARG_OF_PERICENTER = 192.5803
MEAN_ANOMALY   = 167.5074

EPHEMERIS_TYPE = 0
CLASSIFICATION_TYPE = U
NORAD_CAT_ID   = 22236
ELEMENT_SET_NO = 999
REV_AT_EPOCH   = 78055
BSTAR          = .20322E-3
MEAN_MOTION_DOT = .2319E-4
MEAN_MOTION_DDOT = 0

CCSDS_OMM_VERS = 2.0
CREATION_DATE  = 
ORIGINATOR     = 

OBJECT_NAME    = SL-16 R/B
OBJECT_ID      = 1992-093B
CENTER_NAME    = EARTH
REF_FRAME      = TEME
TIME_SYSTEM    = UTC
MEAN_ELEMENT_THEORY = SGP/SGP4

EPOCH          = 2026-03-08T02:44:16.977696
MEAN_MOTION    = 14.15448412
ECCENTRICITY   = .000638
INCLINATION    = 71.0242
RA_OF_ASC_NODE = 7.5728
ARG_OF_PERICENTER = 295.2642
MEAN_ANOMALY   = 64.7820

EPHEMERIS_TYPE = 0
CLASSIFICATION_TYPE = U
NORAD_CAT_ID   = 22285
ELEMENT_SET_NO = 999
REV_AT_EPOCH   = 71293
BSTAR          = -.77649E-4
MEAN_MOTION_DOT = -.199E-5
MEAN_MOTION_DDOT = 0

CCSDS_OMM_VERS = 2.0
CREATION_DATE  = 
ORIGINATOR     = 

OBJECT_NAME    = COSMOS 2228
OBJECT_ID      = 1992-094A
CENTER_NAME    = EARTH
REF_FRAME      = TEME
TIME_SYSTEM    = UTC
MEAN_ELEMENT_THEORY = SGP/SGP4

EPOCH          = 2026-03-08T02:47:53.420928
MEAN_MOTION    = 14.97181932
ECCENTRICITY   = .0016857
INCLINATION    = 82.5154
RA_OF_ASC_NODE = 238.8166
ARG_OF_PERICENTER = 310.3529
MEAN_ANOMALY   = 49.6221

EPHEMERIS_TYPE = 0
CLASSIFICATION_TYPE = U
NORAD_CAT_ID   = 22286
ELEMENT_SET_NO = 999
REV_AT_EPOCH   = 77582
BSTAR          = .27604E-3
MEAN_MOTION_DOT = .3224E-4
MEAN_MOTION_DDOT = 0

CCSDS_OMM_VERS = 2.0
CREATION_DATE  = 
ORIGINATOR     = 

OBJECT_NAME    = SL-16 R/B
OBJECT_ID      = 1993-016B
CENTER_NAME    = EARTH
REF_FRAME      = TEME
TIME_SYSTEM    = UTC
MEAN_ELEMENT_THEORY = SGP/SGP4

EPOCH          = 2026-03-07T19:13:24.096576
MEAN_MOTION    = 14.15307984
ECCENTRICITY   = .00116455
INCLINATION    = 71.0068
RA_OF_ASC_NODE = 219.1474
ARG_OF_PERICENTER = 316.8205
MEAN_ANOMALY   = 43.2004

EPHEMERIS_TYPE = 0
CLASSIFICATION_TYPE = U
NORAD_CAT_ID   = 22566
ELEMENT_SET_NO = 999
REV_AT_EPOCH   = 70190
BSTAR          = .13336925E-3
MEAN_MOTION_DOT = .212E-5
MEAN_MOTION_DDOT = 0

